[{"OBJECT_NAME":"STARLINK-2292","OBJECT_ID":"2021-024AY","EPOCH":"2026-03-10T00:00:02.999808","MEAN_MOTION":15.13637782,"ECCENTRICITY":0.00019543,"INCLINATION":53.0827,"RA_OF_ASC_NODE":330.0861,"ARG_OF_PERICENTER":75.6731,"MEAN_ANOMALY":66.4802,"EPHEMERIS_TYPE":0,"CLASSIFICATION_TYPE":"U","NORAD_CAT_ID":48023,"ELEMENT_SET_NO":999,"REV_AT_EPOCH":579,"BSTAR":0.001671296,"MEAN_MOTION_DOT":0.00030213,"MEAN_MOTION_DDOT":0},{"OBJECT_NAME":"SL-3 R\/B","OBJECT_ID":"1988-032B","EPOCH":"2026-03-09T22:19:17.300640","MEAN_MOTION":15.19913684,"ECCENTRICITY":0.00244288,"INCLINATION":97.5196,"RA_OF_ASC_NODE":52.1801,"ARG_OF_PERICENTER":230.5802,"MEAN_ANOMALY":129.327,"EPHEMERIS_TYPE":0,"CLASSIFICATION_TYPE":"U","NORAD_CAT_ID":19046,"ELEMENT_SET_NO":999,"REV_AT_EPOCH":5214,"BSTAR":0.00028784627,"MEAN_MOTION_DOT":6.162e-5,"MEAN_MOTION_DDOT":0}]
